[
    {
        "CCSDS_OMM_VERS": "3.0",
        "COMMENT": "GENERATED VIA SPACE-TRACK.ORG API",
        "CREATION_DATE": "2025-04-12T22:09:39",
        "ORIGINATOR": "18 SPCS",
        "OBJECT_NAME": "BEIDOU 3M9",
        "OBJECT_ID": "2018-062A",
        "CENTER_NAME": "EARTH",
        "REF_FRAME": "TEME",
        "TIME_SYSTEM": "UTC",
        "MEAN_ELEMENT_THEORY": "SGP4",
        "EPOCH": "2025-04-12T11:14:39.492096",
        "MEAN_MOTION": "1.86228864",
        "ECCENTRICITY": "0.00032800",
        "INCLINATION": "54.1026",
        "RA_OF_ASC_NODE": "196.9488",
        "ARG_OF_PERICENTER": "283.4688",
        "MEAN_ANOMALY": "76.5232",
        "EPHEMERIS_TYPE": "0",
        "CLASSIFICATION_TYPE": "U",
        "NORAD_CAT_ID": "43581",
        "ELEMENT_SET_NO": "999",
        "REV_AT_EPOCH": "4561",
        "BSTAR": "0.00000000000000",
        "MEAN_MOTION_DOT": "0.00000005",
        "MEAN_MOTION_DDOT": "0.0000000000000",
        "SEMIMAJOR_AXIS": "27906.402",
        "PERIOD": "773.242",
        "APOAPSIS": "21537.420",
        "PERIAPSIS": "21519.114",
        "OBJECT_TYPE": "PAYLOAD",
        "RCS_SIZE": "LARGE",
        "COUNTRY_CODE": "PRC",
        "LAUNCH_DATE": "2018-07-29",
        "SITE": "XSC",
        "DECAY_DATE": null,
        "FILE": "4699941",
        "GP_ID": "285446798",
        "TLE_LINE0": "0 BEIDOU 3M9",
        "TLE_LINE1": "1 43581U 18062A   25102.46851264  .00000005  00000-0  00000-0 0  9999",
        "TLE_LINE2": "2 43581  54.1026 196.9488 0003280 283.4688  76.5232  1.86228864 45614"
    }
]